CCSDS_OMM_VERS = 2.0
CREATION_DATE  = 
ORIGINATOR     = 

OBJECT_NAME    = STARLINK-36383
OBJECT_ID      = 2026-036U
CENTER_NAME    = EARTH
REF_FRAME      = TEME
TIME_SYSTEM    = UTC
MEAN_ELEMENT_THEORY = SGP/SGP4

EPOCH          = 2026-03-09T21:18:23.645952
MEAN_MOTION    = 15.82126529
ECCENTRICITY   = .0001777
INCLINATION    = 42.9990
RA_OF_ASC_NODE = 248.4021
ARG_OF_PERICENTER = 287.4920
MEAN_ANOMALY   = 72.5758

EPHEMERIS_TYPE = 0
CLASSIFICATION_TYPE = U
NORAD_CAT_ID   = 67922
ELEMENT_SET_NO = 999
REV_AT_EPOCH   = 370
BSTAR          = .16902E-2
MEAN_MOTION_DOT = .373062E-2
MEAN_MOTION_DDOT = 0

CCSDS_OMM_VERS = 2.0
CREATION_DATE  = 
ORIGINATOR     = 

OBJECT_NAME    = STARLINK-36406
OBJECT_ID      = 2026-036V
CENTER_NAME    = EARTH
REF_FRAME      = TEME
TIME_SYSTEM    = UTC
MEAN_ELEMENT_THEORY = SGP/SGP4

EPOCH          = 2026-03-10T06:00:02.000160
MEAN_MOTION    = 15.71792519
ECCENTRICITY   = .00015682
INCLINATION    = 42.9995
RA_OF_ASC_NODE = 246.2829
ARG_OF_PERICENTER = 264.4552
MEAN_ANOMALY   = 320.3444

EPHEMERIS_TYPE = 0
CLASSIFICATION_TYPE = U
NORAD_CAT_ID   = 67923
ELEMENT_SET_NO = 999
REV_AT_EPOCH   = 373
BSTAR          = -.16648765E-1
MEAN_MOTION_DOT = -.1966802E-1
MEAN_MOTION_DDOT = 0

CCSDS_OMM_VERS = 2.0
CREATION_DATE  = 
ORIGINATOR     = 

OBJECT_NAME    = STARLINK-36714
OBJECT_ID      = 2026-036W
CENTER_NAME    = EARTH
REF_FRAME      = TEME
TIME_SYSTEM    = UTC
MEAN_ELEMENT_THEORY = SGP/SGP4

EPOCH          = 2026-03-09T22:47:08.529792
MEAN_MOTION    = 15.82128242
ECCENTRICITY   = .00022475
INCLINATION    = 42.9991
RA_OF_ASC_NODE = 248.0020
ARG_OF_PERICENTER = 248.5091
MEAN_ANOMALY   = 111.5541

EPHEMERIS_TYPE = 0
CLASSIFICATION_TYPE = U
NORAD_CAT_ID   = 67924
ELEMENT_SET_NO = 999
REV_AT_EPOCH   = 371
BSTAR          = .1504352E-2
MEAN_MOTION_DOT = .33035E-2
MEAN_MOTION_DDOT = 0

CCSDS_OMM_VERS = 2.0
CREATION_DATE  = 
ORIGINATOR     = 

OBJECT_NAME    = STARLINK-36726
OBJECT_ID      = 2026-036X
CENTER_NAME    = EARTH
REF_FRAME      = TEME
TIME_SYSTEM    = UTC
MEAN_ELEMENT_THEORY = SGP/SGP4

EPOCH          = 2026-03-08T22:31:29.695296
MEAN_MOTION    = 15.81838832
ECCENTRICITY   = .000333
INCLINATION    = 42.9988
RA_OF_ASC_NODE = 254.1867
ARG_OF_PERICENTER = 245.4626
MEAN_ANOMALY   = 114.5898

EPHEMERIS_TYPE = 0
CLASSIFICATION_TYPE = U
NORAD_CAT_ID   = 67925
ELEMENT_SET_NO = 999
REV_AT_EPOCH   = 355
BSTAR          = -.93902522E-3
MEAN_MOTION_DOT = -.192425E-2
MEAN_MOTION_DDOT = 0

CCSDS_OMM_VERS = 2.0
CREATION_DATE  = 
ORIGINATOR     = 

OBJECT_NAME    = STARLINK-36758
OBJECT_ID      = 2026-036Y
CENTER_NAME    = EARTH
REF_FRAME      = TEME
TIME_SYSTEM    = UTC
MEAN_ELEMENT_THEORY = SGP/SGP4

EPOCH          = 2026-03-09T22:44:58.937568
MEAN_MOTION    = 15.82128251
ECCENTRICITY   = .00023108
INCLINATION    = 42.9988
RA_OF_ASC_NODE = 247.9897
ARG_OF_PERICENTER = 272.2619
MEAN_ANOMALY   = 87.7988

EPHEMERIS_TYPE = 0
CLASSIFICATION_TYPE = U
NORAD_CAT_ID   = 67926
ELEMENT_SET_NO = 999
REV_AT_EPOCH   = 371
BSTAR          = .15122827E-2
MEAN_MOTION_DOT = .332166E-2
MEAN_MOTION_DDOT = 0

CCSDS_OMM_VERS = 2.0
CREATION_DATE  = 
ORIGINATOR     = 

OBJECT_NAME    = STARLINK-36728
OBJECT_ID      = 2026-036Z
CENTER_NAME    = EARTH
REF_FRAME      = TEME
TIME_SYSTEM    = UTC
MEAN_ELEMENT_THEORY = SGP/SGP4

EPOCH          = 2026-03-09T22:42:49.777344
MEAN_MOTION    = 15.82134533
ECCENTRICITY   = .00017147
INCLINATION    = 42.9995
RA_OF_ASC_NODE = 247.9769
ARG_OF_PERICENTER = 283.4072
MEAN_ANOMALY   = 76.6609

EPHEMERIS_TYPE = 0
CLASSIFICATION_TYPE = U
NORAD_CAT_ID   = 67927
ELEMENT_SET_NO = 999
REV_AT_EPOCH   = 371
BSTAR          = .17556203E-2
MEAN_MOTION_DOT = .388356E-2
MEAN_MOTION_DDOT = 0

CCSDS_OMM_VERS = 2.0
CREATION_DATE  = 
ORIGINATOR     = 

OBJECT_NAME    = STARLINK-36771
OBJECT_ID      = 2026-036AA
CENTER_NAME    = EARTH
REF_FRAME      = TEME
TIME_SYSTEM    = UTC
MEAN_ELEMENT_THEORY = SGP/SGP4

EPOCH          = 2026-03-10T04:47:32.810784
MEAN_MOTION    = 15.82280710
ECCENTRICITY   = .00014853
INCLINATION    = 42.9990
RA_OF_ASC_NODE = 246.4353
ARG_OF_PERICENTER = 313.0342
MEAN_ANOMALY   = 47.0405

EPHEMERIS_TYPE = 0
CLASSIFICATION_TYPE = U
NORAD_CAT_ID   = 67928
ELEMENT_SET_NO = 999
REV_AT_EPOCH   = 375
BSTAR          = .29789761E-2
MEAN_MOTION_DOT = .687658E-2
MEAN_MOTION_DDOT = 0

CCSDS_OMM_VERS = 2.0
CREATION_DATE  = 
ORIGINATOR     = 

OBJECT_NAME    = STARLINK-36809
OBJECT_ID      = 2026-036AB
CENTER_NAME    = EARTH
REF_FRAME      = TEME
TIME_SYSTEM    = UTC
MEAN_ELEMENT_THEORY = SGP/SGP4

EPOCH          = 2026-03-09T22:41:45.245184
MEAN_MOTION    = 15.82097621
ECCENTRICITY   = .00019028
INCLINATION    = 42.9995
RA_OF_ASC_NODE = 247.9708
ARG_OF_PERICENTER = 278.9525
MEAN_ANOMALY   = 81.1131

EPHEMERIS_TYPE = 0
CLASSIFICATION_TYPE = U
NORAD_CAT_ID   = 67929
ELEMENT_SET_NO = 999
REV_AT_EPOCH   = 371
BSTAR          = .13544247E-2
MEAN_MOTION_DOT = .295746E-2
MEAN_MOTION_DDOT = 0

CCSDS_OMM_VERS = 2.0
CREATION_DATE  = 
ORIGINATOR     = 

OBJECT_NAME    = STARLINK-36865
OBJECT_ID      = 2026-036AC
CENTER_NAME    = EARTH
REF_FRAME      = TEME
TIME_SYSTEM    = UTC
MEAN_ELEMENT_THEORY = SGP/SGP4

EPOCH          = 2026-03-09T21:08:40.738848
MEAN_MOTION    = 15.82082312
ECCENTRICITY   = .0002193
INCLINATION    = 42.9988
RA_OF_ASC_NODE = 248.3448
ARG_OF_PERICENTER = 259.4238
MEAN_ANOMALY   = 100.6387

EPHEMERIS_TYPE = 0
CLASSIFICATION_TYPE = U
NORAD_CAT_ID   = 67930
ELEMENT_SET_NO = 999
REV_AT_EPOCH   = 370
BSTAR          = .99418E-3
MEAN_MOTION_DOT = .214751E-2
MEAN_MOTION_DDOT = 0

CCSDS_OMM_VERS = 2.0
CREATION_DATE  = 
ORIGINATOR     = 

OBJECT_NAME    = STARLINK-36781
OBJECT_ID      = 2026-036AD
CENTER_NAME    = EARTH
REF_FRAME      = TEME
TIME_SYSTEM    = UTC
MEAN_ELEMENT_THEORY = SGP/SGP4

EPOCH          = 2026-03-09T22:40:40.293120
MEAN_MOTION    = 15.82125976
ECCENTRICITY   = .00019107
INCLINATION    = 42.9991
RA_OF_ASC_NODE = 247.9652
ARG_OF_PERICENTER = 292.8188
MEAN_ANOMALY   = 67.2481

EPHEMERIS_TYPE = 0
CLASSIFICATION_TYPE = U
NORAD_CAT_ID   = 67931
ELEMENT_SET_NO = 999
REV_AT_EPOCH   = 371
BSTAR          = .17393687E-2
MEAN_MOTION_DOT = .384424E-2
MEAN_MOTION_DDOT = 0

CCSDS_OMM_VERS = 2.0
CREATION_DATE  = 
ORIGINATOR     = 

OBJECT_NAME    = STARLINK-36301
OBJECT_ID      = 2026-037A
CENTER_NAME    = EARTH
REF_FRAME      = TEME
TIME_SYSTEM    = UTC
MEAN_ELEMENT_THEORY = SGP/SGP4

EPOCH          = 2026-03-10T06:00:02.000160
MEAN_MOTION    = 15.81947350
ECCENTRICITY   = .00019874
INCLINATION    = 42.9989
RA_OF_ASC_NODE = 195.1439
ARG_OF_PERICENTER = 258.4957
MEAN_ANOMALY   = 328.2613

EPHEMERIS_TYPE = 0
CLASSIFICATION_TYPE = U
NORAD_CAT_ID   = 67932
ELEMENT_SET_NO = 999
REV_AT_EPOCH   = 319
BSTAR          = .4907822E-3
MEAN_MOTION_DOT = .103722E-2
MEAN_MOTION_DDOT = 0

CCSDS_OMM_VERS = 2.0
CREATION_DATE  = 
ORIGINATOR     = 

OBJECT_NAME    = STARLINK-36852
OBJECT_ID      = 2026-037B
CENTER_NAME    = EARTH
REF_FRAME      = TEME
TIME_SYSTEM    = UTC
MEAN_ELEMENT_THEORY = SGP/SGP4

EPOCH          = 2026-03-10T06:00:02.000160
MEAN_MOTION    = 15.81982835
ECCENTRICITY   = .00015717
INCLINATION    = 42.9989
RA_OF_ASC_NODE = 195.1333
ARG_OF_PERICENTER = 263.7396
MEAN_ANOMALY   = 327.2719

EPHEMERIS_TYPE = 0
CLASSIFICATION_TYPE = U
NORAD_CAT_ID   = 67933
ELEMENT_SET_NO = 999
REV_AT_EPOCH   = 328
BSTAR          = .22793501E-3
MEAN_MOTION_DOT = .47652E-3
MEAN_MOTION_DDOT = 0

